H,e,a,q,i,om,w,ma,ad,n,per,moid,albedo
15.1,0.1682,2.558,2.128,12.11,84.18,95.48,211.84,2.99,0.2409,1490,1.17,0.137417313
17.8,0.3116,3.148,2.167,12.23,321.63,80.44,258.2,4.13,0.1764,2040,1.22,0.140394856
16.22,0.0159,3.058,3.01,7.88,311.56,338.42,22.03,3.11,0.1843,1950,2,0.136747454
16.38,0.1042,2.678,2.399,14.35,347.42,343.68,185.59,2.96,0.2249,1600,1.39,0.124704198
16.12,0.1494,2.542,2.162,2.03,208.75,199.47,337.57,2.92,0.2432,1480,1.17,0.151434973
16.5,0.1391,2.376,2.046,1.19,171.44,315.97,30.57,2.71,0.2691,1340,1.06,0.146303559
16.54,0.1194,2.389,2.104,6.18,329.95,330.11,82.75,2.67,0.2669,1350,1.09,0.139333257
17.8,0.1962,2.577,2.071,13.85,242.85,85.58,234,3.08,0.2383,1510,1.12,0.140432242
17.2,0.178,2.369,1.947,2.05,350.46,88.52,147.9,2.79,0.2703,1330,0.964,0.140757793
17.5,0.1981,3.165,2.538,16.68,157.61,287.72,29.39,3.79,0.1751,2060,1.61,0.152704524
17.7,0.1627,2.662,2.229,4,357.94,183.73,342.49,3.09,0.227,1590,1.23,0.147294057
17.8,0.2367,2.756,2.103,7.93,15.54,20.81,335.08,3.41,0.2155,1670,1.11,0.152235715
19.03,0.1908,2.575,2.084,7.32,121.09,12.04,263.25,3.07,0.2385,1510,1.1,0.130068606
15.53,0.179,2.55,2.094,6.68,246.06,131,287.89,3.01,0.242,1490,1.1,0.133352687
17.45,0.0216,2.671,2.614,3.48,99.18,71.98,167.18,2.73,0.2257,1590,1.62,0.113507524
15.9,0.1043,3.121,2.795,15.57,3.58,35.82,161.47,3.45,0.1788,2010,1.82,0.152425839
16.84,0.0722,2.665,2.473,3.71,37.45,128.94,43.27,2.86,0.2265,1590,1.48,0.129646387
17.9,0.3038,2.696,1.877,13.3,147.62,311.22,205.63,3.52,0.2226,1620,0.921,0.124823471
15.5,0.235,2.662,2.036,12.29,290.9,15.94,110.32,3.29,0.2269,1590,1.02,0.13430663
15.42,0.1711,2.661,2.206,10.81,352.62,69.97,288.22,3.12,0.2271,1590,1.24,0.131856859
16.83,0.1424,2.625,2.252,11.75,358.87,120.88,245.8,3,0.2317,1550,1.29,0.131043336
18.1,0.1707,2.58,2.139,10.79,271.78,102.53,264.74,3.02,0.2379,1510,1.17,0.131764844
18,0.0713,2.725,2.531,3.69,208.63,101.75,60.61,2.92,0.2191,1640,1.52,0.141207665
16.03,0.0535,3.436,3.252,10.21,141.41,155.78,274.41,3.62,0.1548,2330,2.24,0.135332919
17,0.1907,2.28,1.845,5.18,254.18,113.11,192.48,2.71,0.2863,1260,0.852,0.139465243
17.9,0.1229,2.595,2.276,13.79,94.07,196.46,87.38,2.91,0.2357,1530,1.26,0.143597561
16.47,0.189,2.616,2.121,15.21,144.94,192.56,294.71,3.11,0.233,1550,1.11,0.137075253
18.4,0.2272,2.686,2.075,4.15,142.06,267.22,129.98,3.3,0.224,1610,1.09,0.147949643
20.2,0.4124,2.198,1.291,6.17,266.21,58.97,323.61,3.1,0.3025,1190,0.298,0.14059544
18.27,0.1511,2.2,1.867,3.93,211.53,129.58,21.09,2.53,0.3021,1190,0.863,0.133371026
14.71,0.1425,3.057,2.621,4.94,72.84,68.91,169.79,3.49,0.1844,1950,1.64,0.145531803
17.8,0.1117,2.622,2.329,13.41,220.96,21.87,328.05,2.91,0.2322,1550,1.32,0.142441951
17.5,0.1639,2.998,2.507,3.23,39.94,14.88,315.98,3.49,0.1899,1900,1.52,0.135728312
19.7,0.3506,2.641,1.715,8.98,156.63,196.89,112.56,3.57,0.2297,1570,0.712,0.145282776
17.3,0.303,2.744,1.912,12.94,235.85,119.07,89.52,3.57,0.2169,1660,0.948,0.135605242
17.26,0.0406,3.062,2.938,8.47,203.59,77.74,54.72,3.19,0.1839,1960,1.94,0.139835948
18.2,0.1872,2.731,2.22,2.85,26.84,315.08,183.68,3.24,0.2184,1650,1.21,0.121280305
16.61,0.1344,2.705,2.341,11.81,61.59,282.38,114.93,3.07,0.2216,1620,1.37,0.156696505
17.58,0.0616,2.732,2.563,9.73,47.37,159.91,157.48,2.9,0.2183,1650,1.56,0.145571216
16.66,0.0792,3.07,2.827,9.86,169.16,127.65,74.31,3.31,0.1833,1960,1.83,0.131596428
18.13,0.0903,2.525,2.297,6.75,196.17,193.26,221.77,2.75,0.2457,1470,1.3,0.148535521
18.04,0.0998,3.078,2.771,4.76,50.02,346.13,278.28,3.39,0.1825,1970,1.78,0.136172122
17.4,0.1118,2.839,2.522,7.44,353.74,1.93,27.46,3.16,0.206,1750,1.52,0.133612651
16.45,0.1803,3.043,2.495,13.55,59.26,15.1,101.51,3.59,0.1856,1940,1.51,0.139168177
14.13,0.0815,5.262,4.833,17.14,313.51,216.07,224.33,5.69,0.08166,4410,3.86,0.146547375
17.16,0.1558,2.399,2.026,4.12,281.83,187.72,185.12,2.77,0.2652,1360,1.04,0.126637929
17.02,0.1179,3.184,2.809,9.68,252.93,333.87,101.61,3.56,0.1734,2080,1.8,0.140215791
17.7,0.2323,3.12,2.395,16.14,28.14,274.31,292.63,3.84,0.1789,2010,1.45,0.145898935
17.03,0.132,2.386,2.071,3.5,258.4,286.82,170.67,2.7,0.2675,1350,1.08,0.143687646
18.1,0.1256,2.802,2.45,5.71,118.71,256.64,178.78,3.15,0.2101,1710,1.46,0.138884489
17.63,0.1099,2.606,2.32,4.34,7.43,54.82,224.12,2.89,0.2343,1540,1.34,0.150194139
17.2,0.0125,2.872,2.837,1.04,236.71,278.59,37.28,2.91,0.2025,1780,1.84,0.14532288
17,0.1957,2.387,1.92,3.74,338.06,280.86,229.62,2.85,0.2672,1350,0.91,0.142292109
16.8,0.0221,2.676,2.617,22.17,166.1,269.01,95.1,2.74,0.2251,1600,1.66,0.141320478
17.49,0.145,3.03,2.591,19.45,121.72,242.65,346.57,3.47,0.1869,1930,1.65,0.139711771
16.68,0.0505,2.909,2.762,2.22,29,35.07,114.36,3.06,0.1986,1810,1.78,0.143934043
17.5,0.0322,2.763,2.674,5.07,293.11,41.97,253.43,2.85,0.2146,1680,1.67,0.141043816
14.55,0.1759,2.375,1.957,5.22,82.8,243.88,103.92,2.79,0.2692,1340,0.953,0.145806463
17.52,0.178,2.793,2.296,2.64,215.28,208.21,156.38,3.29,0.2111,1710,1.31,0.142127611
18.1,0.1933,2.612,2.107,8.5,91.79,232.96,217.5,3.12,0.2334,1540,1.11,0.144733673
16.51,0.2098,2.714,2.145,8.86,6.33,84.56,302.51,3.28,0.2204,1630,1.18,0.128863777
17.2,0.2502,3.183,2.386,26.98,130.78,247.64,102.59,3.98,0.1736,2070,1.51,0.1412902
15.53,0.0935,2.921,2.648,2.06,168.6,120.02,353.87,3.19,0.1975,1820,1.63,0.135760832
17.32,0.1743,2.655,2.192,8.08,180.37,0.73,166.71,3.12,0.2278,1580,1.2,0.150851087
17.5,0.1345,3.147,2.724,14.14,333.32,170.64,72.02,3.57,0.1766,2040,1.74,0.156675644
18.8,0.1275,2.458,2.144,2.08,122.69,38.59,269.39,2.77,0.2558,1410,1.15,0.141801599
17.07,0.074,2.87,2.658,1.25,334.28,63.8,160.19,3.08,0.2027,1780,1.67,0.142973596
16.75,0.0824,2.267,2.08,5,94.7,28.9,344.84,2.45,0.2888,1250,1.1,0.130810622
19.42,0.5449,3.56,1.62,5.28,76.6,46.97,56.1,5.5,0.1467,2450,1.25,0.15189717
17.9,0.2475,2.344,1.764,4.31,342.96,324.15,29.39,2.92,0.2746,1310,0.753,0.141912162
15.19,0.1779,2.692,2.213,13.55,250.4,95.84,170.93,3.17,0.2231,1610,1.26,0.153460883
17.09,0.1596,2.793,2.347,8.67,119.87,81.73,11.51,3.24,0.2112,1700,1.36,0.137524768
17,0.0586,3.061,2.882,8.9,223.64,116.76,32.45,3.24,0.184,1960,1.89,0.136105318
17.32,0.2016,2.659,2.123,12.39,109.39,264.5,9.47,3.2,0.2273,1580,1.17,0.124742989
18.3,0.1833,2.442,1.994,16.22,315.37,144.31,26.66,2.89,0.2583,1390,1.03,0.137430003
16.96,0.1671,3.085,2.57,0.81,150.48,260.36,343.92,3.6,0.1819,1980,1.58,0.122294637
16.15,0.1055,3.124,2.795,10.31,17.03,91.76,259.07,3.45,0.1785,2020,1.84,0.142074431
17.86,0.0801,2.597,2.389,15.73,78.33,329.96,18.91,2.81,0.2355,1530,1.41,0.150810528
16.1,0.0882,3.085,2.813,9.32,41.65,270.79,198.91,3.36,0.1819,1980,1.82,0.116616383
18.5,0.0394,2.264,2.175,7.06,341.71,170.14,89.45,2.35,0.2893,1240,1.19,0.135875327
17.4,0.1988,2.681,2.148,13.07,196.42,318.48,88.24,3.21,0.2246,1600,1.17,0.134525904
16.81,0.237,2.558,1.952,4.03,306.09,204.59,164.87,3.16,0.2409,1490,0.964,0.141500953
17.4,0.0491,2.658,2.528,2.39,287.34,123.01,37.28,2.79,0.2274,1580,1.54,0.141557192
17.1,0.1598,2.867,2.409,19.27,260.89,49.24,203.24,3.33,0.203,1770,1.44,0.150526402
16.82,0.1793,2.629,2.157,13.9,152.58,154.13,89.95,3.1,0.2313,1560,1.15,0.12984262
16.13,0.1116,2.614,2.322,7.58,154.41,207.25,70.29,2.91,0.2332,1540,1.32,0.142084139
14.3,0.0625,5.129,4.808,8.33,75.82,77.08,254,5.45,0.08485,4240,3.83,0.1420801
25.1,0.3437,1.548,1.016,4.25,26.54,40.91,241.69,2.08,0.5116,704,0.049,0.146502012
18.08,0.0808,2.827,2.599,2.67,49.42,333.06,12.39,3.06,0.2073,1740,1.6,0.145600601
19.68,0.2061,2.33,1.85,6.94,129.3,243.77,35.17,2.81,0.2771,1300,0.862,0.152289384
18.36,0.0596,2.372,2.23,8.24,112.28,79.72,114.05,2.51,0.2699,1330,1.25,0.118176393
18.7,0.144,2.631,2.252,6.28,82.21,354.34,185.65,3.01,0.231,1560,1.27,0.156173174
17.9,0.1309,2.55,2.217,9.96,239.75,81.59,152.81,2.88,0.242,1490,1.23,0.148082892
14.56,0.0484,2.214,2.107,6.11,115.04,108.56,48.3,2.32,0.2993,1200,1.11,0.140957458
16.93,0.0635,3.155,2.955,11.59,121.3,153.96,38.85,3.36,0.1759,2050,1.94,0.136855255
17.77,0.1104,1.876,1.669,23.54,154.07,300.02,36.16,2.08,0.3837,938,0.744,0.141527354
18.09,0.1607,2.347,1.97,1.91,263.02,128.73,284.73,2.72,0.2741,1310,0.977,0.152163568
17.7,0.1279,2.268,1.978,6.18,192.62,192.61,238.21,2.56,0.2885,1250,0.982,0.147216841
18.03,0.1364,2.78,2.401,3.32,163.11,51.04,184.97,3.16,0.2126,1690,1.4,0.145850517
17.1,0.0525,3.001,2.843,14.2,144.66,67.39,83.48,3.16,0.1896,1900,1.88,0.120660612
15.14,0.073,2.615,2.424,21.52,208.17,271,134.7,2.81,0.2331,1540,1.54,0.146614714
16.47,0.0241,3.117,3.042,1.53,46.96,335.17,19.22,3.19,0.1791,2010,2.04,0.142099102
17,0.1512,2.565,2.177,13.68,287.18,84.22,287.32,2.95,0.24,1500,1.23,0.129718266
17.35,0.1402,2.34,2.012,10.03,345.92,32.47,37.46,2.67,0.2754,1310,1.02,0.135226714
19.1,0.1876,2.549,2.071,1.71,197.87,78.4,287.66,3.03,0.2422,1490,1.05,0.149259242
16.72,0.1712,2.406,1.994,2.36,3.19,62.82,160.05,2.82,0.2641,1360,1.01,0.147463588
18.6,0.1902,2.17,1.758,4.13,272.17,353.85,290.53,2.58,0.3083,1170,0.743,0.137847558
19.68,0.3473,2.577,1.682,25.42,210.18,232.11,93.61,3.47,0.2383,1510,0.779,0.150101051
17.2,0.0963,3.051,2.757,10.6,210.82,277.75,53.66,3.34,0.185,1950,1.8,0.147261503
17.8,0.0563,2.519,2.377,1.33,119.33,129.47,193.17,2.66,0.2466,1460,1.36,0.142615102
17.8,0.3616,3.139,2.004,29.23,62.97,131.97,243.61,4.27,0.1772,2030,1.08,0.1241861
18.1,0.4293,3.226,1.841,21.99,316.88,78.94,81.37,4.61,0.1701,2120,0.98,0.155825246
17.7,0.1318,2.974,2.582,8.55,345.79,62.37,64.55,3.37,0.1922,1870,1.6,0.132647939
16.36,0.0612,2.71,2.544,13.36,258.63,19.15,290.54,2.88,0.2209,1630,1.53,0.136070827
16.11,0.0375,3.057,2.942,6.77,266.26,50.8,333.64,3.17,0.1844,1950,1.93,0.139055351
19.1,0.1197,2.353,2.072,7.5,72.15,355.18,242.91,2.64,0.273,1320,1.09,0.147352416
17.3,0.1873,3.073,2.498,8.44,342.54,129.04,156.19,3.65,0.1829,1970,1.52,0.144928108
17.8,0.083,2.56,2.347,2.56,15.17,300.81,351.39,2.77,0.2406,1500,1.34,0.138407013
16.67,0.0449,2.352,2.247,6.76,44.45,67.57,220.11,2.46,0.2732,1320,1.27,0.115738126
